{
  "type": "FeatureCollection",
  "features": [
    {
      "type": "Feature",
      "properties": {
        "norad_id": 34389,
        "name": "COSMOS 2251 DEB",
        "group": "cosmos-2251-debris",
        "lat": 1.0743976115870533,
        "lon": -122.95192882196935,
        "alt_km": 735.6306861990606,
        "timestamp": "2025-12-19T18:58:41.980195+00:00",
        "meta_object_name": "COSMOS 2251 DEB",
        "meta_object_id": "1993-036QE",
        "meta_epoch": "2025-12-19T03:00:47.911392",
        "meta_mean_motion": 14.4154771,
        "meta_eccentricity": 0.00291995,
        "meta_inclination": 74.0181,
        "meta_ra_of_asc_node": 237.9732,
        "meta_arg_of_pericenter": 348.8426,
        "meta_mean_anomaly": 161.5527,
        "meta_ephemeris_type": 0,
        "meta_classification_type": "U",
        "meta_norad_cat_id": 34389,
        "meta_element_set_no": 999,
        "meta_rev_at_epoch": 88104,
        "meta_bstar": 0.00026377286,
        "meta_mean_motion_dot": 8.35e-06,
        "meta_mean_motion_ddot": 0,
        "tle_line1": "1 34389U 93036QE  25353.12555453  .00000835  00000+0  26377-3 0  9999",
        "tle_line2": "2 34389  74.0181 237.9732 0029199 348.8426 161.5527 14.41547710881040"
      },
      "geometry": {
        "type": "Point",
        "coordinates": [
          -122.95192882196935,
          1.0743976115870533
        ]
      }
    },
    {
      "type": "Feature",
      "properties": {
        "norad_id": 34396,
        "name": "COSMOS 2251 DEB",
        "group": "cosmos-2251-debris",
        "lat": 39.559173068707686,
        "lon": 123.94378181890903,
        "alt_km": 644.1829691359626,
        "timestamp": "2025-12-19T18:58:41.980206+00:00",
        "meta_object_name": "COSMOS 2251 DEB",
        "meta_object_id": "1993-036QM",
        "meta_epoch": "2025-12-18T19:03:21.663072",
        "meta_mean_motion": 14.74574094,
        "meta_eccentricity": 0.00052584,
        "meta_inclination": 74.0289,
        "meta_ra_of_asc_node": 112.2056,
        "meta_arg_of_pericenter": 151.4488,
        "meta_mean_anomaly": 1.0635,
        "meta_ephemeris_type": 0,
        "meta_classification_type": "U",
        "meta_norad_cat_id": 34396,
        "meta_element_set_no": 999,
        "meta_rev_at_epoch": 88435,
        "meta_bstar": 0.001542552,
        "meta_mean_motion_dot": 0.00010261,
        "meta_mean_motion_ddot": 0,
        "tle_line1": "1 34396U 93036QM  25352.79400073  .00010261  00000+0  15426-2 0  9992",
        "tle_line2": "2 34396  74.0289 112.2056 0005258 151.4488   1.0635 14.74574094884353"
      },
      "geometry": {
        "type": "Point",
        "coordinates": [
          123.94378181890903,
          39.559173068707686
        ]
      }
    },
    {
      "type": "Feature",
      "properties": {
        "norad_id": 34400,
        "name": "COSMOS 2251 DEB",
        "group": "cosmos-2251-debris",
        "lat": -73.83436722003367,
        "lon": -89.40186062814391,
        "alt_km": 402.36883190212393,
        "timestamp": "2025-12-19T18:58:41.980216+00:00",
        "meta_object_name": "COSMOS 2251 DEB",
        "meta_object_id": "1993-036QR",
        "meta_epoch": "2025-12-19T02:24:10.765440",
        "meta_mean_motion": 15.56249276,
        "meta_eccentricity": 0.00035402,
        "meta_inclination": 73.9631,
        "meta_ra_of_asc_node": 9.2408,
        "meta_arg_of_pericenter": 249.8598,
        "meta_mean_anomaly": 110.2237,
        "meta_ephemeris_type": 0,
        "meta_classification_type": "U",
        "meta_norad_cat_id": 34400,
        "meta_element_set_no": 999,
        "meta_rev_at_epoch": 90073,
        "meta_bstar": 0.0028361475,
        "meta_mean_motion_dot": 0.00204436,
        "meta_mean_motion_ddot": 0,
        "tle_line1": "1 34400U 93036QR  25353.10012460  .00204436  00000+0  28361-2 0  9994",
        "tle_line2": "2 34400  73.9631   9.2408 0003540 249.8598 110.2237 15.56249276900734"
      },
      "geometry": {
        "type": "Point",
        "coordinates": [
          -89.40186062814391,
          -73.83436722003367
        ]
      }
    },
    {
      "type": "Feature",
      "properties": {
        "norad_id": 34409,
        "name": "COSMOS 2251 DEB",
        "group": "cosmos-2251-debris",
        "lat": -50.83182398094521,
        "lon": 133.9800840097813,
        "alt_km": 743.9450090379132,
        "timestamp": "2025-12-19T18:58:41.980227+00:00",
        "meta_object_name": "COSMOS 2251 DEB",
        "meta_object_id": "1993-036RA",
        "meta_epoch": "2025-12-17T21:41:58.187616",
        "meta_mean_motion": 14.58039798,
        "meta_eccentricity": 0.0080077,
        "meta_inclination": 74.0633,
        "meta_ra_of_asc_node": 297.0287,
        "meta_arg_of_pericenter": 9.9996,
        "meta_mean_anomaly": 45.6552,
        "meta_ephemeris_type": 0,
        "meta_classification_type": "U",
        "meta_norad_cat_id": 34409,
        "meta_element_set_no": 999,
        "meta_rev_at_epoch": 89268,
        "meta_bstar": 0.00021398516,
        "meta_mean_motion_dot": 9.97e-06,
        "meta_mean_motion_ddot": 0,
        "tle_line1": "1 34409U 93036RA  25351.90414569  .00000997  00000+0  21399-3 0  9996",
        "tle_line2": "2 34409  74.0633 297.0287 0080077   9.9996  45.6552 14.58039798892688"
      },
      "geometry": {
        "type": "Point",
        "coordinates": [
          133.9800840097813,
          -50.83182398094521
        ]
      }
    },
    {
      "type": "Feature",
      "properties": {
        "norad_id": 34410,
        "name": "COSMOS 2251 DEB",
        "group": "cosmos-2251-debris",
        "lat": 24.67726284949677,
        "lon": -105.5835546820989,
        "alt_km": 498.9061423626363,
        "timestamp": "2025-12-19T18:58:41.980237+00:00",
        "meta_object_name": "COSMOS 2251 DEB",
        "meta_object_id": "1993-036RB",
        "meta_epoch": "2025-12-19T03:43:26.651712",
        "meta_mean_motion": 15.19512291,
        "meta_eccentricity": 0.00217091,
        "meta_inclination": 73.7385,
        "meta_ra_of_asc_node": 248.0638,
        "meta_arg_of_pericenter": 88.337,
        "meta_mean_anomaly": 62.3287,
        "meta_ephemeris_type": 0,
        "meta_classification_type": "U",
        "meta_norad_cat_id": 34410,
        "meta_element_set_no": 999,
        "meta_rev_at_epoch": 89871,
        "meta_bstar": 0.0017593938,
        "meta_mean_motion_dot": 0.00037763,
        "meta_mean_motion_ddot": 0,
        "tle_line1": "1 34410U 93036RB  25353.15516958  .00037763  00000+0  17594-2 0  9994",
        "tle_line2": "2 34410  73.7385 248.0638 0021709  88.3370  62.3287 15.19512291898713"
      },
      "geometry": {
        "type": "Point",
        "coordinates": [
          -105.5835546820989,
          24.67726284949677
        ]
      }
    },
    {
      "type": "Feature",
      "properties": {
        "norad_id": 34412,
        "name": "COSMOS 2251 DEB",
        "group": "cosmos-2251-debris",
        "lat": 8.971961713101296,
        "lon": 128.743545069156,
        "alt_km": 812.3782065056639,
        "timestamp": "2025-12-19T18:58:41.980248+00:00",
        "meta_object_name": "COSMOS 2251 DEB",
        "meta_object_id": "1993-036RD",
        "meta_epoch": "2025-12-18T22:17:58.894368",
        "meta_mean_motion": 14.47204524,
        "meta_eccentricity": 0.0187392,
        "meta_inclination": 73.9485,
        "meta_ra_of_asc_node": 312.9686,
        "meta_arg_of_pericenter": 46.6025,
        "meta_mean_anomaly": 315.0563,
        "meta_ephemeris_type": 0,
        "meta_classification_type": "U",
        "meta_norad_cat_id": 34412,
        "meta_element_set_no": 999,
        "meta_rev_at_epoch": 87740,
        "meta_bstar": 0.0011675289,
        "meta_mean_motion_dot": 5.289e-05,
        "meta_mean_motion_ddot": 0,
        "tle_line1": "1 34412U 93036RD  25352.92915387  .00005289  00000+0  11675-2 0  9991",
        "tle_line2": "2 34412  73.9485 312.9686 0187392  46.6025 315.0563 14.47204524877402"
      },
      "geometry": {
        "type": "Point",
        "coordinates": [
          128.743545069156,
          8.971961713101296
        ]
      }
    },
    {
      "type": "Feature",
      "properties": {
        "norad_id": 34413,
        "name": "COSMOS 2251 DEB",
        "group": "cosmos-2251-debris",
        "lat": -21.159847398126924,
        "lon": 78.43530257440766,
        "alt_km": 836.7701877188993,
        "timestamp": "2025-12-19T18:58:41.980258+00:00",
        "meta_object_name": "COSMOS 2251 DEB",
        "meta_object_id": "1993-036RE",
        "meta_epoch": "2025-12-19T03:37:01.824384",
        "meta_mean_motion": 14.29145308,
        "meta_eccentricity": 0.00909812,
        "meta_inclination": 74.0307,
        "meta_ra_of_asc_node": 253.2338,
        "meta_arg_of_pericenter": 328.5293,
        "meta_mean_anomaly": 182.5817,
        "meta_ephemeris_type": 0,
        "meta_classification_type": "U",
        "meta_norad_cat_id": 34413,
        "meta_element_set_no": 999,
        "meta_rev_at_epoch": 87222,
        "meta_bstar": 0.0011272931,
        "meta_mean_motion_dot": 2.965e-05,
        "meta_mean_motion_ddot": 0,
        "tle_line1": "1 34413U 93036RE  25353.15071556  .00002965  00000+0  11273-2 0  9991",
        "tle_line2": "2 34413  74.0307 253.2338 0090981 328.5293 182.5817 14.29145308872223"
      },
      "geometry": {
        "type": "Point",
        "coordinates": [
          78.43530257440766,
          -21.159847398126924
        ]
      }
    }
  ]
}